******** Week 337 almanac for PRN-18 ********
ID:                         18
Health:                     000
Eccentricity:               0.5642890930E-002
Time of Applicability(s):  405504.0000
Orbital Inclination(rad):   0.9731514197
Rate of Right Ascen(r/s):  -0.7874613724E-008
SQRT(A)  (m 1/2):           5153.626953
Right Ascen at Week(rad):  -0.3208779963E+000
Argument of Perigee(rad):  -2.899234175
Mean Anom(rad):             0.2218658282E+000
Af0(s):                    -0.5445480347E-003
Af1(s/s):                   0.7275957614E-011
week:                        337

******** Week 337 almanac for PRN-19 ********
ID:                         19
Health:                     000
Eccentricity:               0.1079463959E-001
Time of Applicability(s):  405504.0000
Orbital Inclination(rad):   0.9604541334
Rate of Right Ascen(r/s):  -0.8171768958E-008
SQRT(A)  (m 1/2):           5153.619141
Right Ascen at Week(rad):  -0.1285887109E+001
Argument of Perigee(rad):   2.874107750
Mean Anom(rad):            -0.2195282677E+001
Af0(s):                     0.6647109985E-003
Af1(s/s):                   0.3637978807E-011
week:                        337

******** Week 337 almanac for PRN-21 ********
ID:                         21
Health:                     000
Eccentricity:               0.1134872437E-003
Time of Applicability(s):  405504.0000
Orbital Inclination(rad):   0.9607896917
Rate of Right Ascen(r/s):  -0.7748894201E-008
SQRT(A)  (m 1/2):           5153.629395
Right Ascen at Week(rad):   0.7282105657E+000
Argument of Perigee(rad):   0.216282303
Mean Anom(rad):            -0.2007638926E+001
Af0(s):                     0.2555847168E-003
Af1(s/s):                   0.1818989404E-010
week:                        337

******** Week 337 almanac for PRN-22 ********
ID:                         22
Health:                     000
Eccentricity:               0.1284933090E-001
Time of Applicability(s):  405504.0000
Orbital Inclination(rad):   0.9585486417
Rate of Right Ascen(r/s):  -0.7726036106E-008
SQRT(A)  (m 1/2):           5153.598633
Right Ascen at Week(rad):  -0.2345626276E+001
Argument of Perigee(rad):  -1.035086868
Mean Anom(rad):             0.2827867741E+001
Af0(s):                    -0.9059906006E-004
Af1(s/s):                   0.3637978807E-011
week:                        337

******** Week 337 almanac for PRN-23 ********
ID:                         23
Health:                     000
Eccentricity:               0.5729675293E-002
Time of Applicability(s):  405504.0000
Orbital Inclination(rad):   0.9860224773
Rate of Right Ascen(r/s):  -0.7451738966E-008
SQRT(A)  (m 1/2):           5153.637695
Right Ascen at Week(rad):   0.6834056683E+000
Argument of Perigee(rad):  -2.826594043
Mean Anom(rad):            -0.8121244830E+000
Af0(s):                     0.5483627319E-003
Af1(s/s):                   0.7275957614E-011
week:                        337

******** Week 337 almanac for PRN-24 ********
ID:                         24
Health:                     000
Eccentricity:               0.1745176315E-001
Time of Applicability(s):  405504.0000
Orbital Inclination(rad):   0.9347959079
Rate of Right Ascen(r/s):  -0.8091765626E-008
SQRT(A)  (m 1/2):           5153.601562
Right Ascen at Week(rad):   0.2694721505E+001
Argument of Perigee(rad):   1.097510074
Mean Anom(rad):             0.4189149482E+000
Af0(s):                    -0.2908706665E-003
Af1(s/s):                   0.1091393642E-010
week:                        337

******** Week 337 almanac for PRN-25 ********
ID:                         25
Health:                     000
Eccentricity:               0.1250362396E-001
Time of Applicability(s):  405504.0000
Orbital Inclination(rad):   0.9482541925
Rate of Right Ascen(r/s):  -0.7840326581E-008
SQRT(A)  (m 1/2):           5153.524414
Right Ascen at Week(rad):  -0.2458211703E+001
Argument of Perigee(rad):   1.130601140
Mean Anom(rad):            -0.1256284950E+001
Af0(s):                     0.4701614380E-003
Af1(s/s):                   0.0000000000E+000
week:                        337

******** Week 337 almanac for PRN-26 ********
ID:                         26
Health:                     000
Eccentricity:               0.1041984558E-001
Time of Applicability(s):  405504.0000
Orbital Inclination(rad):   0.9290674484
Rate of Right Ascen(r/s):  -0.7977475151E-008
SQRT(A)  (m 1/2):           5153.586426
Right Ascen at Week(rad):  -0.2529752657E+001
Argument of Perigee(rad):   0.652566887
Mean Anom(rad):            -0.2135789239E+001
Af0(s):                    -0.2641677856E-003
Af1(s/s):                  -0.3637978807E-011
week:                        337

******** Week 337 almanac for PRN-27 ********
ID:                         27
Health:                     000
Eccentricity:               0.1356410980E-001
Time of Applicability(s):  405504.0000
Orbital Inclination(rad):   0.9545878553
Rate of Right Ascen(r/s):  -0.8228914196E-008
SQRT(A)  (m 1/2):           5153.602051
Right Ascen at Week(rad):  -0.1401567087E+001
Argument of Perigee(rad):   0.852112096
Mean Anom(rad):             0.2371680356E+001
Af0(s):                    -0.2574920654E-004
Af1(s/s):                   0.0000000000E+000
week:                        337

******** Week 337 almanac for PRN-28 ********
ID:                         28
Health:                     000
Eccentricity:               0.4096031189E-003
Time of Applicability(s):  405504.0000
Orbital Inclination(rad):   0.9619341852
Rate of Right Ascen(r/s):  -0.7840326581E-008
SQRT(A)  (m 1/2):           5153.632324
Right Ascen at Week(rad):   0.2772802850E+001
Argument of Perigee(rad):   0.444498272
Mean Anom(rad):            -0.6066485803E+000
Af0(s):                    -0.6380081177E-003
Af1(s/s):                   0.0000000000E+000
week:                        337

******** Week 337 almanac for PRN-29 ********
ID:                         29
Health:                     000
Eccentricity:               0.3310203552E-002
Time of Applicability(s):  405504.0000
Orbital Inclination(rad):   0.9638516612
Rate of Right Ascen(r/s):  -0.8137481816E-008
SQRT(A)  (m 1/2):           5153.536621
Right Ascen at Week(rad):  -0.1313621601E+001
Argument of Perigee(rad):   2.789611474
Mean Anom(rad):             0.2170726626E+001
Af0(s):                    -0.4501342773E-003
Af1(s/s):                   0.3637978807E-011
week:                        337

******** Week 337 almanac for PRN-30 ********
ID:                         30
Health:                     000
Eccentricity:               0.7678031921E-002
Time of Applicability(s):  405504.0000
Orbital Inclination(rad):   0.9361800859
Rate of Right Ascen(r/s):  -0.8103194673E-008
SQRT(A)  (m 1/2):           5153.555664
Right Ascen at Week(rad):   0.2793695099E+001
Argument of Perigee(rad):  -2.354851882
Mean Anom(rad):            -0.7015063420E+000
Af0(s):                    -0.2479553223E-004
Af1(s/s):                   0.1091393642E-010
week:                        337

******** Week 337 almanac for PRN-31 ********
ID:                         31
Health:                     000
Eccentricity:               0.1083564758E-001
Time of Applicability(s):  405504.0000
Orbital Inclination(rad):   0.9548035714
Rate of Right Ascen(r/s):  -0.7863184676E-008
SQRT(A)  (m 1/2):           5153.671875
Right Ascen at Week(rad):   0.2823878493E+001
Argument of Perigee(rad):   0.879351865
Mean Anom(rad):            -0.1531755842E+001
Af0(s):                    -0.1907348633E-003
Af1(s/s):                   0.0000000000E+000
week:                        337

******** Week 337 almanac for PRN-32 ********
ID:                         32
Health:                     000
Eccentricity:               0.8691787720E-002
Time of Applicability(s):  405504.0000
Orbital Inclination(rad):   0.9657751293
Rate of Right Ascen(r/s):  -0.7943188009E-008
SQRT(A)  (m 1/2):           5153.604492
Right Ascen at Week(rad):   0.1743604356E+001
Argument of Perigee(rad):  -2.061477682
Mean Anom(rad):             0.3027197235E+001
Af0(s):                    -0.3118515015E-003
Af1(s/s):                   0.1455191523E-010
week:                        337